[{"OBJECT_NAME":"NOAA 18","OBJECT_ID":"2005-018A","EPOCH":"2026-03-17T06:09:05.228928","MEAN_MOTION":14.13712397,"ECCENTRICITY":0.00150752,"INCLINATION":98.8146,"RA_OF_ASC_NODE":157.2572,"ARG_OF_PERICENTER":55.3426,"MEAN_ANOMALY":304.9165,"EPHEMERIS_TYPE":0,"CLASSIFICATION_TYPE":"U","NORAD_CAT_ID":28654,"ELEMENT_SET_NO":999,"REV_AT_EPOCH":7332,"BSTAR":5.0207782e-5,"MEAN_MOTION_DOT":5.1e-7,"MEAN_MOTION_DDOT":0},{"OBJECT_NAME":"NOAA 19","OBJECT_ID":"2009-005A","EPOCH":"2026-03-17T05:43:55.572960","MEAN_MOTION":14.13458179,"ECCENTRICITY":0.00127238,"INCLINATION":98.9592,"RA_OF_ASC_NODE":147.0221,"ARG_OF_PERICENTER":291.758,"MEAN_ANOMALY":68.2237,"EPHEMERIS_TYPE":0,"CLASSIFICATION_TYPE":"U","NORAD_CAT_ID":33591,"ELEMENT_SET_NO":999,"REV_AT_EPOCH":88149,"BSTAR":4.7621991e-5,"MEAN_MOTION_DOT":4.4e-7,"MEAN_MOTION_DDOT":0},{"OBJECT_NAME":"SUOMI NPP","OBJECT_ID":"2011-061A","EPOCH":"2026-03-17T05:09:02.963232","MEAN_MOTION":14.19545741,"ECCENTRICITY":8.179e-5,"INCLINATION":98.7879,"RA_OF_ASC_NODE":17.758,"ARG_OF_PERICENTER":186.6115,"MEAN_ANOMALY":173.505,"EPHEMERIS_TYPE":0,"CLASSIFICATION_TYPE":"U","NORAD_CAT_ID":37849,"ELEMENT_SET_NO":999,"REV_AT_EPOCH":74539,"BSTAR":5.7380818e-5,"MEAN_MOTION_DOT":7.7e-7,"MEAN_MOTION_DDOT":0},{"OBJECT_NAME":"NOAA 20 (JPSS-1)","OBJECT_ID":"2017-073A","EPOCH":"2026-03-17T05:30:14.441184","MEAN_MOTION":14.19538103,"ECCENTRICITY":0.00015229,"INCLINATION":98.7701,"RA_OF_ASC_NODE":16.5419,"ARG_OF_PERICENTER":127.4791,"MEAN_ANOMALY":232.6523,"EPHEMERIS_TYPE":0,"CLASSIFICATION_TYPE":"U","NORAD_CAT_ID":43013,"ELEMENT_SET_NO":999,"REV_AT_EPOCH":43142,"BSTAR":5.4739984e-5,"MEAN_MOTION_DOT":7.1e-7,"MEAN_MOTION_DDOT":0}]
