NOAA 18                 
1 28654U 05018A   26076.25631052  .00000051  00000+0  50208-4 0  9998
2 28654  98.8146 157.2572 0015075  55.3426 304.9165 14.13712397 73326
NOAA 19                 
1 33591U 09005A   26076.23883765  .00000044  00000+0  47622-4 0  9990
2 33591  98.9592 147.0221 0012723 291.7580  68.2237 14.13458179881490
SUOMI NPP               
1 37849U 11061A   26076.21461763  .00000077  00000+0  57381-4 0  9992
2 37849  98.7879  17.7580 0000817 186.6115 173.5050 14.19545741745393
NOAA 20 (JPSS-1)        
1 43013U 17073A   26076.22933381  .00000071  00000+0  54740-4 0  9992
2 43013  98.7701  16.5419 0001522 127.4791 232.6523 14.19538103431424
